{"type": "FeatureCollection", "features": [{"type": "Feature", "properties": {"norad_id": 22675, "name": "COSMOS 2251", "group": "cosmos-2251-debris", "lat": -41.78942523054854, "lon": 154.9515041880494, "alt_km": 804.3763844881823, "timestamp": "2025-12-10T09:57:45.090184+00:00", "meta": {"OBJECT_NAME": "COSMOS 2251", "OBJECT_ID": "1993-036A", "EPOCH": "2025-12-10T02:13:17.598720", "MEAN_MOTION": 14.33203456, "ECCENTRICITY": 0.0023887, "INCLINATION": 74.0394, "RA_OF_ASC_NODE": 320.7205, "ARG_OF_PERICENTER": 43.8149, "MEAN_ANOMALY": 316.4892, "EPHEMERIS_TYPE": 0, "CLASSIFICATION_TYPE": "U", "NORAD_CAT_ID": 22675, "ELEMENT_SET_NO": 999, "REV_AT_EPOCH": 69735, "BSTAR": 8.3787e-05, "MEAN_MOTION_DOT": 2.05e-06, "MEAN_MOTION_DDOT": 0}, "tle": {"line1": "1 22675U 93036A   25344.09256480  .00000205  00000+0  83787-4 0  9998", "line2": "2 22675  74.0394 320.7205 0023887  43.8149 316.4892 14.33203456697351"}}, "geometry": {"type": "Point", "coordinates": [154.9515041880494, -41.78942523054854]}}, {"type": "Feature", "properties": {"norad_id": 33757, "name": "COSMOS 2251 DEB", "group": "cosmos-2251-debris", "lat": -73.86088316267185, "lon": -130.58923082975429, "alt_km": 787.0544553541758, "timestamp": "2025-12-10T09:57:45.090208+00:00", "meta": {"OBJECT_NAME": "COSMOS 2251 DEB", "OBJECT_ID": "1993-036E", "EPOCH": "2025-12-10T02:20:15.614016", "MEAN_MOTION": 14.32579833, "ECCENTRICITY": 0.0015153, "INCLINATION": 74.0366, "RA_OF_ASC_NODE": 328.4338, "ARG_OF_PERICENTER": 342.1902, "MEAN_ANOMALY": 87.8071, "EPHEMERIS_TYPE": 0, "CLASSIFICATION_TYPE": "U", "NORAD_CAT_ID": 33757, "ELEMENT_SET_NO": 999, "REV_AT_EPOCH": 87958, "BSTAR": 6.9025e-05, "MEAN_MOTION_DOT": 1.61e-06, "MEAN_MOTION_DDOT": 0}, "tle": {"line1": "1 33757U 93036E   25344.09740294  .00000161  00000+0  69025-4 0  9992", "line2": "2 33757  74.0366 328.4338 0015153 342.1902  87.8071 14.32579833879583"}}, "geometry": {"type": "Point", "coordinates": [-130.58923082975429, -73.86088316267185]}}, {"type": "Feature", "properties": {"norad_id": 33758, "name": "COSMOS 2251 DEB", "group": "cosmos-2251-debris", "lat": 51.473266632204044, "lon": -119.50801532501094, "alt_km": 723.0621183960238, "timestamp": "2025-12-10T09:57:45.090222+00:00", "meta": {"OBJECT_NAME": "COSMOS 2251 DEB", "OBJECT_ID": "1993-036F", "EPOCH": "2025-12-10T02:08:04.231104", "MEAN_MOTION": 14.5156767, "ECCENTRICITY": 0.0017466, "INCLINATION": 74.0276, "RA_OF_ASC_NODE": 220.0228, "ARG_OF_PERICENTER": 287.0122, "MEAN_ANOMALY": 223.6175, "EPHEMERIS_TYPE": 0, "CLASSIFICATION_TYPE": "U", "NORAD_CAT_ID": 33758, "ELEMENT_SET_NO": 999, "REV_AT_EPOCH": 88266, "BSTAR": 0.0010732, "MEAN_MOTION_DOT": 4.279e-05, "MEAN_MOTION_DDOT": 0}, "tle": {"line1": "1 33758U 93036F   25344.08893786  .00004279  00000+0  10732-2 0  9990", "line2": "2 33758  74.0276 220.0228 0017466 287.0122 223.6175 14.51567670882664"}}, "geometry": {"type": "Point", "coordinates": [-119.50801532501094, 51.473266632204044]}}, {"type": "Feature", "properties": {"norad_id": 33760, "name": "COSMOS 2251 DEB", "group": "cosmos-2251-debris", "lat": 47.86092033430139, "lon": 87.27441140911908, "alt_km": 771.7760192061196, "timestamp": "2025-12-10T09:57:45.090234+00:00", "meta": {"OBJECT_NAME": "COSMOS 2251 DEB", "OBJECT_ID": "1993-036H", "EPOCH": "2025-12-09T20:07:27.391872", "MEAN_MOTION": 14.35669872, "ECCENTRICITY": 0.0019747, "INCLINATION": 74.032, "RA_OF_ASC_NODE": 286.7805, "ARG_OF_PERICENTER": 25.9309, "MEAN_ANOMALY": 4.4336, "EPHEMERIS_TYPE": 0, "CLASSIFICATION_TYPE": "U", "NORAD_CAT_ID": 33760, "ELEMENT_SET_NO": 999, "REV_AT_EPOCH": 88083, "BSTAR": 0.00020815, "MEAN_MOTION_DOT": 5.76e-06, "MEAN_MOTION_DDOT": 0}, "tle": {"line1": "1 33760U 93036H   25343.83851148  .00000576  00000+0  20815-3 0  9991", "line2": "2 33760  74.0320 286.7805 0019747  25.9309   4.4336 14.35669872880837"}}, "geometry": {"type": "Point", "coordinates": [87.27441140911908, 47.86092033430139]}}, {"type": "Feature", "properties": {"norad_id": 33761, "name": "COSMOS 2251 DEB", "group": "cosmos-2251-debris", "lat": 0.558966138789627, "lon": -103.36410349336134, "alt_km": 737.6657926653506, "timestamp": "2025-12-10T09:57:45.090251+00:00", "meta": {"OBJECT_NAME": "COSMOS 2251 DEB", "OBJECT_ID": "1993-036J", "EPOCH": "2025-12-10T03:53:57.714720", "MEAN_MOTION": 14.42532023, "ECCENTRICITY": 0.0022997, "INCLINATION": 74.0367, "RA_OF_ASC_NODE": 256.9444, "ARG_OF_PERICENTER": 337.5454, "MEAN_ANOMALY": 151.6309, "EPHEMERIS_TYPE": 0, "CLASSIFICATION_TYPE": "U", "NORAD_CAT_ID": 33761, "ELEMENT_SET_NO": 999, "REV_AT_EPOCH": 88197, "BSTAR": 0.00070146, "MEAN_MOTION_DOT": 2.308e-05, "MEAN_MOTION_DDOT": 0}, "tle": {"line1": "1 33761U 93036J   25344.16247355  .00002308  00000+0  70146-3 0  9995", "line2": "2 33761  74.0367 256.9444 0022997 337.5454 151.6309 14.42532023881977"}}, "geometry": {"type": "Point", "coordinates": [-103.36410349336134, 0.558966138789627]}}, {"type": "Feature", "properties": {"norad_id": 33762, "name": "COSMOS 2251 DEB", "group": "cosmos-2251-debris", "lat": 73.01473548396402, "lon": 23.798480410160987, "alt_km": 768.1098495976139, "timestamp": "2025-12-10T09:57:45.090262+00:00", "meta": {"OBJECT_NAME": "COSMOS 2251 DEB", "OBJECT_ID": "1993-036K", "EPOCH": "2025-12-10T04:37:53.168736", "MEAN_MOTION": 14.33662388, "ECCENTRICITY": 0.0014891, "INCLINATION": 74.0415, "RA_OF_ASC_NODE": 314.6829, "ARG_OF_PERICENTER": 16.849, "MEAN_ANOMALY": 1.1506, "EPHEMERIS_TYPE": 0, "CLASSIFICATION_TYPE": "U", "NORAD_CAT_ID": 33762, "ELEMENT_SET_NO": 999, "REV_AT_EPOCH": 88011, "BSTAR": 8.4882e-05, "MEAN_MOTION_DOT": 2.1e-06, "MEAN_MOTION_DDOT": 0}, "tle": {"line1": "1 33762U 93036K   25344.19297649  .00000210  00000+0  84882-4 0  9993", "line2": "2 33762  74.0415 314.6829 0014891  16.8490   1.1506 14.33662388880113"}}, "geometry": {"type": "Point", "coordinates": [23.798480410160987, 73.01473548396402]}}, {"type": "Feature", "properties": {"norad_id": 33764, "name": "COSMOS 2251 DEB", "group": "cosmos-2251-debris", "lat": 5.033730488861553, "lon": 95.50460634872637, "alt_km": 755.7271342700715, "timestamp": "2025-12-10T09:57:45.090273+00:00", "meta": {"OBJECT_NAME": "COSMOS 2251 DEB", "OBJECT_ID": "1993-036M", "EPOCH": "2025-12-10T04:41:38.740128", "MEAN_MOTION": 14.39501295, "ECCENTRICITY": 0.0024057, "INCLINATION": 74.0336, "RA_OF_ASC_NODE": 277.3548, "ARG_OF_PERICENTER": 243.53, "MEAN_ANOMALY": 234.2474, "EPHEMERIS_TYPE": 0, "CLASSIFICATION_TYPE": "U", "NORAD_CAT_ID": 33764, "ELEMENT_SET_NO": 999, "REV_AT_EPOCH": 88120, "BSTAR": 0.00053862, "MEAN_MOTION_DOT": 1.659e-05, "MEAN_MOTION_DDOT": 0}, "tle": {"line1": "1 33764U 93036M   25344.19558727  .00001659  00000+0  53862-3 0  9993", "line2": "2 33764  74.0336 277.3548 0024057 243.5300 234.2474 14.39501295881203"}}, "geometry": {"type": "Point", "coordinates": [95.50460634872637, 5.033730488861553]}}, {"type": "Feature", "properties": {"norad_id": 33765, "name": "COSMOS 2251 DEB", "group": "cosmos-2251-debris", "lat": 42.9214034875792, "lon": -17.553816440509287, "alt_km": 565.550340844763, "timestamp": "2025-12-10T09:57:45.090299+00:00", "meta": {"OBJECT_NAME": "COSMOS 2251 DEB", "OBJECT_ID": "1993-036N", "EPOCH": "2025-12-10T00:30:40.040928", "MEAN_MOTION": 15.09723576, "ECCENTRICITY": 0.006601, "INCLINATION": 74.0091, "RA_OF_ASC_NODE": 178.7268, "ARG_OF_PERICENTER": 271.3822, "MEAN_ANOMALY": 244.5047, "EPHEMERIS_TYPE": 0, "CLASSIFICATION_TYPE": "U", "NORAD_CAT_ID": 33765, "ELEMENT_SET_NO": 999, "REV_AT_EPOCH": 89577, "BSTAR": 0.0026362, "MEAN_MOTION_DOT": 0.00044995, "MEAN_MOTION_DDOT": 0}, "tle": {"line1": "1 33765U 93036N   25344.02129677  .00044995  00000+0  26362-2 0  9998", "line2": "2 33765  74.0091 178.7268 0066010 271.3822 244.5047 15.09723576895771"}}, "geometry": {"type": "Point", "coordinates": [-17.553816440509287, 42.9214034875792]}}, {"type": "Feature", "properties": {"norad_id": 33766, "name": "COSMOS 2251 DEB", "group": "cosmos-2251-debris", "lat": -67.58825985836057, "lon": 2.612761075703423, "alt_km": 781.4210454184022, "timestamp": "2025-12-10T09:57:45.090312+00:00", "meta": {"OBJECT_NAME": "COSMOS 2251 DEB", "OBJECT_ID": "1993-036P", "EPOCH": "2025-12-10T03:45:32.135616", "MEAN_MOTION": 14.34921409, "ECCENTRICITY": 0.0064022, "INCLINATION": 74.1856, "RA_OF_ASC_NODE": 139.6697, "ARG_OF_PERICENTER": 343.7778, "MEAN_ANOMALY": 16.1324, "EPHEMERIS_TYPE": 0, "CLASSIFICATION_TYPE": "U", "NORAD_CAT_ID": 33766, "ELEMENT_SET_NO": 999, "REV_AT_EPOCH": 87708, "BSTAR": 0.0007022, "MEAN_MOTION_DOT": 2.019e-05, "MEAN_MOTION_DDOT": 0}, "tle": {"line1": "1 33766U 93036P   25344.15662194  .00002019  00000+0  70220-3 0  9993", "line2": "2 33766  74.1856 139.6697 0064022 343.7778  16.1324 14.34921409877086"}}, "geometry": {"type": "Point", "coordinates": [2.612761075703423, -67.58825985836057]}}, {"type": "Feature", "properties": {"norad_id": 33768, "name": "COSMOS 2251 DEB", "group": "cosmos-2251-debris", "lat": 67.65763754431188, "lon": -0.40470138814747564, "alt_km": 996.0258613744099, "timestamp": "2025-12-10T09:57:45.090328+00:00", "meta": {"OBJECT_NAME": "COSMOS 2251 DEB", "OBJECT_ID": "1993-036R", "EPOCH": "2025-12-10T02:57:18.196992", "MEAN_MOTION": 13.58451246, "ECCENTRICITY": 0.0366196, "INCLINATION": 74.0685, "RA_OF_ASC_NODE": 224.0903, "ARG_OF_PERICENTER": 22.404, "MEAN_ANOMALY": 91.9106, "EPHEMERIS_TYPE": 0, "CLASSIFICATION_TYPE": "U", "NORAD_CAT_ID": 33768, "ELEMENT_SET_NO": 999, "REV_AT_EPOCH": 83260, "BSTAR": 0.00048446, "MEAN_MOTION_DOT": 5.26e-06, "MEAN_MOTION_DDOT": 0}, "tle": {"line1": "1 33768U 93036R   25344.12312728  .00000526  00000+0  48446-3 0  9993", "line2": "2 33768  74.0685 224.0903 0366196  22.4040  91.9106 13.58451246832606"}}, "geometry": {"type": "Point", "coordinates": [-0.40470138814747564, 67.65763754431188]}}]}